{
  "type": "FeatureCollection",
  "features": [
    {
      "type": "Feature",
      "properties": {
        "norad_id": 46435,
        "name": "IRIDIUM 33 DEB",
        "group": "iridium-33-debris",
        "lat": 56.05646997251894,
        "lon": 12.910539179130106,
        "alt_km": 934.5715519249843,
        "timestamp": "2025-12-02T06:27:53.397564+00:00",
        "meta_object_name": "IRIDIUM 33 DEB",
        "meta_object_id": "1997-051ABN",
        "meta_epoch": "2025-11-29T09:55:50.719008",
        "meta_mean_motion": 14.31124144,
        "meta_eccentricity": 0.02140805,
        "meta_inclination": 86.2846,
        "meta_ra_of_asc_node": 199.6762,
        "meta_arg_of_pericenter": 319.3143,
        "meta_mean_anomaly": 220.6231,
        "meta_ephemeris_type": 0,
        "meta_classification_type": "U",
        "meta_norad_cat_id": 46435,
        "meta_element_set_no": 999,
        "meta_rev_at_epoch": 7725,
        "meta_bstar": 0.006461235,
        "meta_mean_motion_dot": 0.0002197,
        "meta_mean_motion_ddot": 0,
        "tle_line1": "1 46435U 97051ABN 25333.41378147  .00021970  00000+0  64612-2 0  9994",
        "tle_line2": "2 46435  86.2846 199.6762 0214080 319.3143 220.6231 14.31124144 77259"
      },
      "geometry": {
        "type": "Point",
        "coordinates": [
          12.910539179130106,
          56.05646997251894
        ]
      }
    },
    {
      "type": "Feature",
      "properties": {
        "norad_id": 46734,
        "name": "IRIDIUM 33 DEB",
        "group": "iridium-33-debris",
        "lat": -61.41547865237999,
        "lon": 0.5745669618983652,
        "alt_km": 751.1384611517569,
        "timestamp": "2025-12-02T06:27:53.397574+00:00",
        "meta_object_name": "IRIDIUM 33 DEB",
        "meta_object_id": "1997-051ABR",
        "meta_epoch": "2025-12-01T09:21:29.278944",
        "meta_mean_motion": 14.41774419,
        "meta_eccentricity": 0.00397336,
        "meta_inclination": 86.2649,
        "meta_ra_of_asc_node": 7.8461,
        "meta_arg_of_pericenter": 13.5805,
        "meta_mean_anomaly": 43.5005,
        "meta_ephemeris_type": 0,
        "meta_classification_type": "U",
        "meta_norad_cat_id": 46734,
        "meta_element_set_no": 999,
        "meta_rev_at_epoch": 62847,
        "meta_bstar": 0.0010971823,
        "meta_mean_motion_dot": 3.634e-05,
        "meta_mean_motion_ddot": 0,
        "tle_line1": "1 46734U 97051ABR 25335.38992221  .00003634  00000+0  10972-2 0  9996",
        "tle_line2": "2 46734  86.2649   7.8461 0039733  13.5805  43.5005 14.41774419628470"
      },
      "geometry": {
        "type": "Point",
        "coordinates": [
          0.5745669618983652,
          -61.41547865237999
        ]
      }
    },
    {
      "type": "Feature",
      "properties": {
        "norad_id": 46965,
        "name": "IRIDIUM 33 DEB",
        "group": "iridium-33-debris",
        "lat": 75.37710699545794,
        "lon": 151.12339798732896,
        "alt_km": 686.7557554461346,
        "timestamp": "2025-12-02T06:27:53.397584+00:00",
        "meta_object_name": "IRIDIUM 33 DEB",
        "meta_object_id": "1997-051ABX",
        "meta_epoch": "2025-12-01T19:17:57.587136",
        "meta_mean_motion": 14.60159185,
        "meta_eccentricity": 0.0019627,
        "meta_inclination": 86.3356,
        "meta_ra_of_asc_node": 345.5484,
        "meta_arg_of_pericenter": 10.7692,
        "meta_mean_anomaly": 169.2127,
        "meta_ephemeris_type": 0,
        "meta_classification_type": "U",
        "meta_norad_cat_id": 46965,
        "meta_element_set_no": 999,
        "meta_rev_at_epoch": 62108,
        "meta_bstar": 0.00078041,
        "meta_mean_motion_dot": 3.788e-05,
        "meta_mean_motion_ddot": 0,
        "tle_line1": "1 46965U 97051ABX 25335.80413874  .00003788  00000+0  78041-3 0  9993",
        "tle_line2": "2 46965  86.3356 345.5484 0019627  10.7692 169.2127 14.60159185621081"
      },
      "geometry": {
        "type": "Point",
        "coordinates": [
          151.12339798732896,
          75.37710699545794
        ]
      }
    },
    {
      "type": "Feature",
      "properties": {
        "norad_id": 46971,
        "name": "IRIDIUM 33 DEB",
        "group": "iridium-33-debris",
        "lat": -41.09320969628801,
        "lon": 161.23538963662483,
        "alt_km": 586.4251535284302,
        "timestamp": "2025-12-02T06:27:53.397594+00:00",
        "meta_object_name": "IRIDIUM 33 DEB",
        "meta_object_id": "1997-051ACD",
        "meta_epoch": "2025-11-30T18:57:44.502624",
        "meta_mean_motion": 14.96904917,
        "meta_eccentricity": 0.00065248,
        "meta_inclination": 86.3392,
        "meta_ra_of_asc_node": 338.7285,
        "meta_arg_of_pericenter": 8.9727,
        "meta_mean_anomaly": 165.6369,
        "meta_ephemeris_type": 0,
        "meta_classification_type": "U",
        "meta_norad_cat_id": 46971,
        "meta_element_set_no": 999,
        "meta_rev_at_epoch": 64051,
        "meta_bstar": 0.0032009998,
        "meta_mean_motion_dot": 0.00036919,
        "meta_mean_motion_ddot": 0,
        "tle_line1": "1 46971U 97051ACD 25334.79009841  .00036919  00000+0  32010-2 0  9999",
        "tle_line2": "2 46971  86.3392 338.7285 0006524   8.9727 165.6369 14.96904917640518"
      },
      "geometry": {
        "type": "Point",
        "coordinates": [
          161.23538963662483,
          -41.09320969628801
        ]
      }
    },
    {
      "type": "Feature",
      "properties": {
        "norad_id": 46974,
        "name": "IRIDIUM 33 DEB",
        "group": "iridium-33-debris",
        "lat": 65.41908658803551,
        "lon": 117.97812226589706,
        "alt_km": 801.4787828999015,
        "timestamp": "2025-12-02T06:27:53.397604+00:00",
        "meta_object_name": "IRIDIUM 33 DEB",
        "meta_object_id": "1997-051ACG",
        "meta_epoch": "2025-11-30T02:35:30.463008",
        "meta_mean_motion": 14.43749529,
        "meta_eccentricity": 0.00958857,
        "meta_inclination": 86.2984,
        "meta_ra_of_asc_node": 110.7848,
        "meta_arg_of_pericenter": 228.1133,
        "meta_mean_anomaly": 131.1861,
        "meta_ephemeris_type": 0,
        "meta_classification_type": "U",
        "meta_norad_cat_id": 46974,
        "meta_element_set_no": 999,
        "meta_rev_at_epoch": 57326,
        "meta_bstar": 0.0048958995,
        "meta_mean_motion_dot": 0.00017648,
        "meta_mean_motion_ddot": 0,
        "tle_line1": "1 46974U 97051ACG 25334.10799147  .00017648  00000+0  48959-2 0  9999",
        "tle_line2": "2 46974  86.2984 110.7848 0095885 228.1133 131.1861 14.43749529573265"
      },
      "geometry": {
        "type": "Point",
        "coordinates": [
          117.97812226589706,
          65.41908658803551
        ]
      }
    },
    {
      "type": "Feature",
      "properties": {
        "norad_id": 46979,
        "name": "IRIDIUM 33 DEB",
        "group": "iridium-33-debris",
        "lat": -11.183086067801966,
        "lon": -125.8640952277577,
        "alt_km": 600.8351061878866,
        "timestamp": "2025-12-02T06:27:53.397615+00:00",
        "meta_object_name": "IRIDIUM 33 DEB",
        "meta_object_id": "1997-051ACM",
        "meta_epoch": "2025-12-01T11:51:13.074912",
        "meta_mean_motion": 14.88074464,
        "meta_eccentricity": 0.00285955,
        "meta_inclination": 86.3339,
        "meta_ra_of_asc_node": 53.769,
        "meta_arg_of_pericenter": 262.5043,
        "meta_mean_anomaly": 97.2933,
        "meta_ephemeris_type": 0,
        "meta_classification_type": "U",
        "meta_norad_cat_id": 46979,
        "meta_element_set_no": 999,
        "meta_rev_at_epoch": 35261,
        "meta_bstar": 0.0059304432,
        "meta_mean_motion_dot": 0.00055309,
        "meta_mean_motion_ddot": 0,
        "tle_line1": "1 46979U 97051ACM 25335.49390133  .00055309  00000+0  59304-2 0  9991",
        "tle_line2": "2 46979  86.3339  53.7690 0028595 262.5043  97.2933 14.88074464352616"
      },
      "geometry": {
        "type": "Point",
        "coordinates": [
          -125.8640952277577,
          -11.183086067801966
        ]
      }
    }
  ]
}